#dP2022 10  2  0  0  0.00000000      96 __u+U ITR00 FIT  IAC
## 2230      0.00000000   900.00000000 59854 0.0000000000000
+  118   C06C07C08C09C10C11C12C13C14C16C19C20C21C22C23C24C25
+        C26C27C28C29C30C32C33C34C35C36C37C38C39C40C41C42C43
+        C44C45C46E01E02E03E04E05E07E08E09E10E11E12E13E14E15
+        E18E19E21E24E25E26E27E30E31E33E34E36G01G02G03G04G05
+        G06G07G08G09G10G11G12G13G14G15G16G17G18G19G20G21G22
+        G23G24G25G26G27G28G29G30G31G32J02J03J04R01R02R03R04
+        R05R07R08R09R11R12R13R14R15R17R18R19R20R21R24R25  0
++         7  7  7  6  7  8  7  8  6  8  7  7  8  8  6  5  7
++         7  7  7  8  7  6  5  7  8  7  7  8  7  8  6  7  7
++         6  7  6  6  5  6  6  6  6  7  7  6  5  6  6  5  6
++         7  7  7  6  5  6  6  6  7  7  7  7  6  7  5  5  8
++         6  5  6  7  6  6  6  6  6  6  6  6  7  6  6  6  7
++         6  4  5  6  7  6  6  6  6  5  9  7  8  6  7  6  6
++         6  7  8  7  7  6  8  8  7  8  8  8  7  7  7  8  0
%c M  cc GPS ccc cccc cccc cccc cccc ccccc ccccc ccccc ccccc
%c cc cc ccc ccc cccc cccc cccc cccc ccccc ccccc ccccc ccccc
%f  0.0000000  0.000000000  0.00000000000  0.000000000000000
%f  0.0000000  0.000000000  0.00000000000  0.000000000000000
%i    0    0    0    0      0      0      0      0         0
%i    0    0    0    0      0      0      0      0         0
/* INFORMATION & ANALYSIS CENTER (IAC)      ULTRA-RAPID DATA
/* S/V CLOCKS ARE ALIGNED TO GNSS TIME                      
/* G:C1WC2W R:C1PC2P E:C1XC5X C:C2IC6I J:C1CC2S             
/* PCV:IGS14_2218 OL/AL:FES2004  NONE     YN ORB:CoN CLK:CoN
*  2022 10 02  2  0  0.00000000
PC06 -18637.851200  34697.429481 -15363.750531    907.842677
PC07  -4148.653265  36236.541646 -20971.192941   -219.061298
PC08  -8514.790648  19305.465382  36482.451313    485.182431
PC09 -11677.010345  33320.274502 -23063.062583   -846.880267
PC10   2391.229393  38845.545355 -15278.781317     89.429331
PC11  18957.225047  -1887.923359  20473.274446   -375.788938
PC12   7010.400411  14997.806987  22499.083013   -497.868904
PC13    800.929471  22658.268648  35700.095270     95.780692
PC14  18039.196789   8080.112061 -19668.231262    691.583255
PC16 -22078.021033  34181.592113 -11375.219177    133.221812
PC19 -15848.050885   2621.295723  22835.886333   -781.810598
PC20 -17536.822880 -16015.464177  14676.344632    873.620904
PC21   8717.948550  26336.945696   2936.987594   -515.097566
PC22  -4947.715728  20595.043276  18148.419722   -874.153310
PC23  13754.032575 -13026.468066  20502.907114   -355.208410
PC24  23638.806840  10693.364436 -10318.739027   -413.479209
PC25  26493.534896  -3037.220485   8258.128250      3.670914
PC26   8641.481082  16163.428006 -21062.667586    -15.557136
PC27    329.250956 -20981.132733 -18411.708195     29.558469
PC28  14878.743715 -23276.526080  -3983.668742     19.503783
PC29 -20877.549275  12278.011623 -13862.378966     21.184977
PC30 -14571.686864  -6902.038405 -22782.861874      0.267496
PC32  -8874.829869 -26287.829272  -3014.071484   -777.693637
PC33  15884.669352  -2629.616136 -22795.807086   -806.115209
PC34  15278.485556   5837.911919  22598.834924      7.442374
PC35 -14943.790183  23441.521346   2590.230799     22.760876
PC36 -26736.329446   1999.121121  -7696.829074   -483.353464
PC37  -6758.640554 -16467.816038  21503.841615   -374.772863
PC38 -17285.696241  18972.644535  33423.714836     28.190445
PC39 -23478.901598  34595.765233  -6193.497418     -0.544537
PC40  -8009.470506  32656.466361 -25309.056114     -5.225386
PC41   5263.938346 -20252.019543 -18418.999162   -132.476462
PC42  17337.887640  16993.079316 -13712.269366   -397.805460
PC43  20955.372493 -11500.212646  14380.220985     17.327583
PC44    295.296505  21171.647483  18179.844601     68.236411
PC45 -13343.923877  13066.294728 -20721.365932 999999.999999
PC46 -24598.801930  -9712.043632   8847.389153     -3.567842
PE01  -5094.929153  16729.054068 -23873.863206   -538.856232
PE02   4937.423006 -16829.953752  23847.713132    328.181583
PE03   8189.903524 -27796.916595  -6072.035349   -605.556364
PE04   4817.555261  26630.231819 -11993.245266  -1127.659710
PE05  16663.492549 -12626.018032 -20958.019352   -138.556919
PE07 -15316.444524  -9635.203383  23425.369922   -709.908210
PE08  -4856.660853 -26581.976701  12087.980249   -608.325829
PE09  15165.701510   9711.260002 -23493.279577   -678.527147
PE10  15507.220146   9772.343351  23236.924301   -480.765497
PE11  23783.212617   2474.805514  17435.025581   1977.288816
PE12   5414.319677  15173.879407  24827.396316   -199.806837
PE13 -23253.809113  -2993.146746 -18063.699927    430.643100
PE14 -11216.645461 -22500.631034 -20565.011540     15.808054
PE15  -5162.234781 -15192.560085 -24870.409793    716.757386
PE18  10500.164870  12930.776285  16660.409720   -910.200365
PE19  -9749.597524  26627.661284   8497.741614  -4378.298643
PE21 -20402.499267   2490.453871 -21291.784104   -761.015308
PE24  24957.129329  14996.982973   5394.718831   -868.169875
PE25  20590.903659  -2230.792142  21162.790403   -589.119072
PE26 -27349.164473  11302.077702    161.667873  -1678.771991
PE27 -25170.789185 -14204.660765  -6355.301113   -405.466654
PE30 -14295.551430 -22510.830035  12832.644319   -882.552934
PE31  15103.286865  22368.694707 -12144.307385   -504.805282
PE33 -15853.825900  18353.153532  16969.212113   -454.286043
PE34  15668.178433 -18411.509111 -17099.817676     -7.359956
PE36  27535.427566 -10844.328034    727.566001   -439.770896
PG01  -1334.111551 -14858.598135 -22258.255089    274.368252
PG02  -3944.494744  16955.807437  20760.945478   -643.998527
PG03  -7960.029616 -20896.159346 -14537.723758   -359.317846
PG04   -104.083895 -24810.491849   9346.616722   -110.150996
PG05      0.000000      0.000000      0.000000 999999.999999
PG06 -25717.153948   6593.344636  -1580.359774    478.785123
PG07 -17419.880066  -8688.800771  18698.679608    302.696893
PG08   5665.629120 -25740.341599    475.862631    -87.019877
PG09  -9104.931064 -17514.176933  17674.486022   -288.800067
PG10  21861.260454   8838.934231 -12375.471538     -5.702845
PG11 -21660.486965  12112.490376   9413.838965    -21.422775
PG12   6026.324953  21447.942885 -14805.802775   -287.316587
PG13 -13212.733498  21888.959503   6658.201459    398.245815
PG14 -21748.625062 -10712.926967 -10967.493286    -99.014726
PG15  -2377.865664  26288.422227   -160.893236    -24.356728
PG16  10261.664061 -10900.684509  21646.370785   -525.481804
PG17 -14319.337908  -3210.277889 -21701.145652    664.719504
PG18  18180.685630   7507.680402  17908.710347     29.239307
PG19 -16571.313065   7662.644216 -19436.258137    218.245121
PG20 -15199.604370   7567.261881  20380.347412    481.790827
PG21   7802.562584 -16762.669887 -18164.891378    158.665995
PG22  16246.279924 -11137.339913 -17315.248894    338.078979
PG23  21125.932039  15955.298357  -2899.229342     -0.660972
PG24  -2173.970341  17108.238683 -20424.172028    115.408603
PG25  16436.122635  20382.903820  -5545.453663    378.039150
PG26  17913.651967  -3625.174479  19287.328421    230.856241
PG27  12541.386365 -20151.982328  11282.546973    204.420595
PG28 -19107.935397  -3245.928754 -17543.590366    333.686930
PG29   6404.727139  18860.964239  17483.389491 999999.999999
PG30 -24641.063287   -737.336693  10302.960856   -537.199423
PG31  25941.489507  -6762.708162   -703.466724   -195.343078
PG32  15480.712156   -363.493752 -21411.389579   -250.423504
PJ02 -23787.644207  17403.286393 -25591.791158     -6.255163
PJ03 -28616.975672  31003.621281   4650.518439     -2.306509
PJ04 -26038.886774  27186.660164  25044.026750    111.586140
PR01  -1891.299624  21220.124197  14017.340934     15.611070
PR02   7088.682225  24102.061980  -4586.763770    -22.844842
PR03  11794.269449  12149.683762 -19064.487046     64.728414
PR04   9581.870362  -6239.681762 -22778.831670    159.646461
PR05   2356.018384 -21203.107501 -13957.319833    100.548164
PR07 -11844.423749 -11276.673746  19587.984878     41.887184
PR08  -9645.917571   6495.340883  22756.332527    -67.469286
PR09 -13366.748389 -13028.968708  17445.077444     79.774142
PR11 -21462.887945    207.949554 -13780.513464     25.774144
PR12  -5502.264277   9744.710811 -22890.891118     21.699203
PR13  11878.259433  12937.586932 -18507.860091    -27.391213
PR14  23930.933174   8561.412702  -2036.172264     24.224711
PR15  20918.866255   -647.381088  14604.250953     93.428682
PR17  14400.650322      6.842832  21076.376216    565.563218
PR18  20360.592535 -12398.275343   9037.367775     45.113541
PR19  17003.501966 -17843.663537  -6597.531955   -205.747217
PR20   1114.744847 -13361.863648 -21684.295831    -79.439129
PR21 -15277.158222   1214.492041 -20378.564747   -338.241369
PR24    168.894727  13353.346125  21744.563953    117.887614
PR25 -20974.347330  11961.947882  -8209.576190 999999.999999
EOF
